*******************************************************************************
Ephemeris / WWW_USER Fri Mar  7 10:08:28 2025 Pasadena, USA      / Horizons    
*******************************************************************************
Target body name: (2018 PM20)                     {source: JPL#2}
Center body name: Earth (399)                     {source: DE441}
Center-site name: Mauna Kea
*******************************************************************************
Start time      : A.D. 2019-Jan-27 04:20:00.0000 UT      
Stop  time      : A.D. 2019-Jan-27 16:48:00.0000 UT      
Step-size       : 1 minutes
*******************************************************************************
Target pole/equ : undefined
Target radii    : undefined                                                    
Center geodetic : 204.5278, 19.8260847, 4.21024   {E-lon(deg),Lat(deg),Alt(km)}
Center cylindric: 204.5278, 6006.35451, 2151.0229 {E-lon(deg),Dxy(km),Dz(km)}
Center pole/equ : ITRF93                          {East-longitude positive}
Center radii    : 6378.137, 6378.137, 6356.752 km {Equator_a, b, pole_c}       
Target primary  : Sun
Vis. interferer : MOON (R_eq= 1737.400) km        {source: DE441}
Rel. light bend : Sun                             {source: DE441}
Rel. lght bnd GM: 1.3271E+11 km^3/s^2                                          
Small-body perts: Yes                             {source: SB441-N16}
Atmos refraction: NO (AIRLESS)
RA format       : HMS
Time format     : CAL 
Calendar mode   : Mixed Julian/Gregorian
RTS-only print  : NO       
EOP file        : eop.250306.p250602                                           
EOP coverage    : DATA-BASED 1962-JAN-20 TO 2025-MAR-06. PREDICTS-> 2025-JUN-01
Units conversion: 1 au= 149597870.700 km, c= 299792.458 km/s, 1 day= 86400.0 s 
Table cut-offs 1: Elevation (-90.0deg=NO ),Airmass (>38.000=NO), Daylight (YES)
Table cut-offs 2: Solar elongation (  0.0,180.0=NO ),Local Hour Angle( 0.0=NO )
Table cut-offs 3: RA/DEC angular rate (     0.0=NO )                           
*******************************************************************************
Initial IAU76/J2000 heliocentric ecliptic osculating elements (au, days, deg.):
  EPOCH=  2458343.5 ! 2018-Aug-13.00 (TDB)         Residual RMS= .089003       
   EC= .5103595829140648   QR= .9783824475456468   TP= 2458372.5495769856      
   OM= 141.729241004527    W=  213.3086535448706   IN= 3.923256746335003       
  Equivalent ICRF heliocentric cartesian coordinates (au, au/d):
   X= 8.000585561647119E-01  Y=-6.125483166279821E-01  Z=-2.634816273742420E-01
  VX= 9.656077190407949E-03 VY= 1.708944028933422E-02 VZ= 5.904161592396531E-03
Asteroid physical parameters (km, seconds, rotational period in hours):        
   GM= n.a.                RAD= n.a.               ROTPER= n.a.                
   H= 26.3                 G= .150                 B-V= n.a.                   
                           ALBEDO= n.a.            STYP= n.a.                  
*******************************************************************************
 Date__(UT)__HR:MN     R.A._________(ICRF)_________DEC
******************************************************
$$SOE
 2019-Jan-27 06:23     05 15 43.546427 +18 30 43.32775
 2019-Jan-27 06:24     05 15 43.560564 +18 30 43.57288
 2019-Jan-27 06:25     05 15 43.574699 +18 30 43.81796
 2019-Jan-27 06:26     05 15 43.588832 +18 30 44.06298
 2019-Jan-27 06:27     05 15 43.602965 +18 30 44.30794
 2019-Jan-27 06:28     05 15 43.617096 +18 30 44.55285
 2019-Jan-27 06:29     05 15 43.631225 +18 30 44.79771
 2019-Jan-27 06:30     05 15 43.645354 +18 30 45.04251
 2019-Jan-27 06:31     05 15 43.659481 +18 30 45.28726
 2019-Jan-27 06:32     05 15 43.673607 +18 30 45.53195
 2019-Jan-27 06:33     05 15 43.687732 +18 30 45.77659
 2019-Jan-27 06:34     05 15 43.701857 +18 30 46.02117
 2019-Jan-27 06:35     05 15 43.715980 +18 30 46.26569
 2019-Jan-27 06:36     05 15 43.730102 +18 30 46.51016
 2019-Jan-27 06:37     05 15 43.744223 +18 30 46.75458
 2019-Jan-27 06:38     05 15 43.758344 +18 30 46.99894
 2019-Jan-27 06:39     05 15 43.772464 +18 30 47.24324
 2019-Jan-27 06:40     05 15 43.786583 +18 30 47.48749
 2019-Jan-27 06:41     05 15 43.800701 +18 30 47.73168
 2019-Jan-27 06:42     05 15 43.814819 +18 30 47.97582
 2019-Jan-27 06:43     05 15 43.828936 +18 30 48.21990
 2019-Jan-27 06:44     05 15 43.843053 +18 30 48.46393
 2019-Jan-27 06:45     05 15 43.857169 +18 30 48.70790
 2019-Jan-27 06:46     05 15 43.871285 +18 30 48.95182
 2019-Jan-27 06:47     05 15 43.885401 +18 30 49.19568
 2019-Jan-27 06:48     05 15 43.899516 +18 30 49.43948
 2019-Jan-27 06:49     05 15 43.913631 +18 30 49.68323
 2019-Jan-27 06:50     05 15 43.927746 +18 30 49.92693
 2019-Jan-27 06:51     05 15 43.941861 +18 30 50.17057
 2019-Jan-27 06:52     05 15 43.955975 +18 30 50.41415
 2019-Jan-27 06:53     05 15 43.970090 +18 30 50.65767
 2019-Jan-27 06:54     05 15 43.984204 +18 30 50.90114
 2019-Jan-27 06:55     05 15 43.998319 +18 30 51.14456
 2019-Jan-27 06:56     05 15 44.012434 +18 30 51.38792
 2019-Jan-27 06:57     05 15 44.026548 +18 30 51.63122
 2019-Jan-27 06:58     05 15 44.040664 +18 30 51.87447
 2019-Jan-27 06:59     05 15 44.054779 +18 30 52.11766
 2019-Jan-27 07:00     05 15 44.068895 +18 30 52.36080
 2019-Jan-27 07:01     05 15 44.083011 +18 30 52.60388
 2019-Jan-27 07:02     05 15 44.097127 +18 30 52.84690
 2019-Jan-27 07:03     05 15 44.111244 +18 30 53.08987
 2019-Jan-27 07:04     05 15 44.125362 +18 30 53.33278
 2019-Jan-27 07:05     05 15 44.139480 +18 30 53.57564
 2019-Jan-27 07:06     05 15 44.153599 +18 30 53.81844
 2019-Jan-27 07:07     05 15 44.167718 +18 30 54.06119
 2019-Jan-27 07:08     05 15 44.181838 +18 30 54.30387
 2019-Jan-27 07:09     05 15 44.195959 +18 30 54.54651
 2019-Jan-27 07:10     05 15 44.210081 +18 30 54.78908
 2019-Jan-27 07:11     05 15 44.224204 +18 30 55.03161
 2019-Jan-27 07:12     05 15 44.238328 +18 30 55.27407
 2019-Jan-27 07:13     05 15 44.252452 +18 30 55.51648
 2019-Jan-27 07:14  t  05 15 44.266578 +18 30 55.75883
 2019-Jan-27 07:15     05 15 44.280705 +18 30 56.00113
 2019-Jan-27 07:16     05 15 44.294833 +18 30 56.24337
 2019-Jan-27 07:17     05 15 44.308962 +18 30 56.48556
 2019-Jan-27 07:18     05 15 44.323092 +18 30 56.72769
 2019-Jan-27 07:19     05 15 44.337224 +18 30 56.96976
 2019-Jan-27 07:20     05 15 44.351357 +18 30 57.21178
 2019-Jan-27 07:21     05 15 44.365492 +18 30 57.45374
 2019-Jan-27 07:22     05 15 44.379628 +18 30 57.69565
 2019-Jan-27 07:23     05 15 44.393765 +18 30 57.93750
 2019-Jan-27 07:24     05 15 44.407904 +18 30 58.17929
 2019-Jan-27 07:25     05 15 44.422045 +18 30 58.42103
 2019-Jan-27 07:26     05 15 44.436187 +18 30 58.66272
 2019-Jan-27 07:27     05 15 44.450331 +18 30 58.90434
 2019-Jan-27 07:28     05 15 44.464477 +18 30 59.14592
 2019-Jan-27 07:29     05 15 44.478625 +18 30 59.38743
 2019-Jan-27 07:30     05 15 44.492774 +18 30 59.62889
 2019-Jan-27 07:31     05 15 44.506926 +18 30 59.87030
 2019-Jan-27 07:32     05 15 44.521079 +18 31 00.11164
 2019-Jan-27 07:33     05 15 44.535235 +18 31 00.35294
 2019-Jan-27 07:34     05 15 44.549392 +18 31 00.59417
 2019-Jan-27 07:35     05 15 44.563552 +18 31 00.83536
 2019-Jan-27 07:36     05 15 44.577714 +18 31 01.07648
 2019-Jan-27 07:37     05 15 44.591878 +18 31 01.31755
 2019-Jan-27 07:38     05 15 44.606045 +18 31 01.55857
 2019-Jan-27 07:39     05 15 44.620214 +18 31 01.79953
 2019-Jan-27 07:40     05 15 44.634385 +18 31 02.04043
 2019-Jan-27 07:41     05 15 44.648558 +18 31 02.28128
 2019-Jan-27 07:42     05 15 44.662735 +18 31 02.52207
 2019-Jan-27 07:43     05 15 44.676913 +18 31 02.76281
 2019-Jan-27 07:44     05 15 44.691095 +18 31 03.00349
 2019-Jan-27 07:45     05 15 44.705279 +18 31 03.24412
 2019-Jan-27 07:46     05 15 44.719465 +18 31 03.48469
 2019-Jan-27 07:47     05 15 44.733655 +18 31 03.72520
 2019-Jan-27 07:48     05 15 44.747847 +18 31 03.96566
 2019-Jan-27 07:49     05 15 44.762042 +18 31 04.20607
 2019-Jan-27 07:50     05 15 44.776240 +18 31 04.44642
 2019-Jan-27 07:51     05 15 44.790441 +18 31 04.68672
 2019-Jan-27 07:52     05 15 44.804645 +18 31 04.92696
 2019-Jan-27 07:53     05 15 44.818852 +18 31 05.16714
 2019-Jan-27 07:54     05 15 44.833062 +18 31 05.40727
 2019-Jan-27 07:55     05 15 44.847275 +18 31 05.64735
 2019-Jan-27 07:56     05 15 44.861492 +18 31 05.88737
 2019-Jan-27 07:57     05 15 44.875712 +18 31 06.12733
 2019-Jan-27 07:58     05 15 44.889935 +18 31 06.36724
 2019-Jan-27 07:59     05 15 44.904161 +18 31 06.60710
 2019-Jan-27 08:00     05 15 44.918391 +18 31 06.84690
 2019-Jan-27 08:01     05 15 44.932625 +18 31 07.08664
 2019-Jan-27 08:02     05 15 44.946862 +18 31 07.32634
 2019-Jan-27 08:03     05 15 44.961102 +18 31 07.56597
 2019-Jan-27 08:04     05 15 44.975346 +18 31 07.80556
 2019-Jan-27 08:05     05 15 44.989594 +18 31 08.04508
 2019-Jan-27 08:06     05 15 45.003845 +18 31 08.28456
 2019-Jan-27 08:07     05 15 45.018101 +18 31 08.52398
 2019-Jan-27 08:08     05 15 45.032360 +18 31 08.76334
 2019-Jan-27 08:09     05 15 45.046623 +18 31 09.00265
 2019-Jan-27 08:10     05 15 45.060890 +18 31 09.24191
 2019-Jan-27 08:11     05 15 45.075161 +18 31 09.48111
 2019-Jan-27 08:12     05 15 45.089436 +18 31 09.72026
 2019-Jan-27 08:13     05 15 45.103715 +18 31 09.95935
 2019-Jan-27 08:14     05 15 45.117998 +18 31 10.19839
 2019-Jan-27 08:15     05 15 45.132285 +18 31 10.43738
 2019-Jan-27 08:16     05 15 45.146576 +18 31 10.67631
 2019-Jan-27 08:17     05 15 45.160872 +18 31 10.91519
 2019-Jan-27 08:18     05 15 45.175172 +18 31 11.15402
 2019-Jan-27 08:19     05 15 45.189477 +18 31 11.39279
 2019-Jan-27 08:20     05 15 45.203786 +18 31 11.63151
 2019-Jan-27 08:21     05 15 45.218099 +18 31 11.87017
 2019-Jan-27 08:22     05 15 45.232417 +18 31 12.10878
 2019-Jan-27 08:23     05 15 45.246740 +18 31 12.34734
 2019-Jan-27 08:24     05 15 45.261067 +18 31 12.58584
 2019-Jan-27 08:25     05 15 45.275399 +18 31 12.82429
